{
  "status": "success",
  "hasErrors": false,
  "message": "",
  "length": 155,
  "payload": [
    {
      "_index": "tle",
      "_type": "_doc",
      "_id": "-lijtXYBAz3ao6c9LFAp",
      "_score": 9.444279,
      "_source": {
        "right_ascension": "047.6295",
        "anomaly": "065.8007",
        "calc_anomaly": 65.8007,
        "satellite_number": 10976,
        "calc_mean_motion": 2.22212811,
        "ephemeris": "0",
        "set_number": "022",
        "calc_ballistic_coefficient": -4.7e-7,
        "epoch": "04147.83920053",
        "international_designator": "78068B",
        "calc_inclination": 22.0166,
        "perigee": "214.1798",
        "revolution_number": "2101",
        "line_number": 208213,
        "calc_perigee": 214.1798,
        "drag": "+19086-2",
        "text": "1 10976U 78068B   04147.83920053 -.00000047  00000-0  19086-2 0   223\n2 10976  22.0166  47.6295 7185611 214.1798  65.8007  2.22212811 21017",
        "calc_drag": 0.0019086,
        "timestamp": "2004-05-26 20:08:26",
        "inclination": "022.0166",
        "eccentricity": "7185611",
        "classification": "U",
        "calc_right_ascension": 47.6295,
        "calc_mean_motion_2": 0,
        "ballistic_coefficient": "-.00000047",
        "filename": "tle2004_5of8.txt",
        "calc_eccentricity": 0.7185611,
        "mean_motion": "02.22212811",
        "mean_motion_2": "+00000-0"
      }
    },
    {
      "_index": "tle",
      "_type": "_doc",
      "_id": "EFijtXYBAz3ao6c99G6e",
      "_score": 9.444279,
      "_source": {
        "right_ascension": "38.2135",
        "anomaly": "39.8952",
        "calc_anomaly": 39.8952,
        "satellite_number": 10976,
        "calc_mean_motion": 2.22213654,
        "ephemeris": "0",
        "set_number": "242",
        "calc_ballistic_coefficient": -6.3e-7,
        "epoch": "04175.70846008",
        "international_designator": "78068B",
        "calc_inclination": 22.0808,
        "perigee": "231.0921",
        "revolution_number": "21080",
        "line_number": 191675,
        "calc_perigee": 231.0921,
        "drag": "19086-2",
        "text": "1 10976U 78068B   04175.70846008 -.00000063  00000-0  19086-2 0  2429\n2 10976  22.0808  38.2135 7185012 231.0921  39.8952  2.22213654210803",
        "calc_drag": 0.0019086,
        "timestamp": "2004-06-23 17:00:10",
        "inclination": "22.0808",
        "eccentricity": "7185012",
        "classification": "U",
        "calc_right_ascension": 38.2135,
        "calc_mean_motion_2": 0,
        "ballistic_coefficient": "-.00000063",
        "filename": "tle2004_5of8.txt",
        "calc_eccentricity": 0.7185012,
        "mean_motion": "2.22213654",
        "mean_motion_2": "00000-0"
      }
    },
    {
      "_index": "tle",
      "_type": "_doc",
      "_id": "Hu3RtXYBwxzt-ZlwGHRq",
      "_score": 9.444279,
      "_source": {
        "right_ascension": "079.6219",
        "anomaly": "347.8204",
        "calc_anomaly": 347.8204,
        "satellite_number": 10976,
        "calc_mean_motion": 2.22227071,
        "ephemeris": "0",
        "set_number": "787",
        "calc_ballistic_coefficient": -0.00000167,
        "epoch": "07004.38576286",
        "international_designator": "78068B",
        "calc_inclination": 21.5916,
        "perigee": "077.6514",
        "revolution_number": "23136",
        "line_number": 33217,
        "calc_perigee": 77.6514,
        "drag": "67294-3",
        "text": "1 10976U 78068B   07004.38576286 -.00000167  00000-0  67294-3 0  7879\n2 10976  21.5916  79.6219 7161801  77.6514 347.8204  2.22227071231365",
        "calc_drag": 0.00067294,
        "timestamp": "2007-01-04 09:15:29",
        "inclination": "021.5916",
        "eccentricity": "7161801",
        "classification": "U",
        "calc_right_ascension": 79.6219,
        "calc_mean_motion_2": 0,
        "ballistic_coefficient": "-.00000167",
        "filename": "tle2007.txt",
        "calc_eccentricity": 0.7161801,
        "mean_motion": "02.22227071",
        "mean_motion_2": "00000-0"
      }
    },
    {
      "_index": "tle",
      "_type": "_doc",
      "_id": "s-7WtXYBwxzt-ZlwUwki",
      "_score": 9.444279,
      "_source": {
        "right_ascension": "078.2374",
        "anomaly": "347.2483",
        "calc_anomaly": 347.2483,
        "satellite_number": 10976,
        "calc_mean_motion": 2.22227498,
        "ephemeris": "0",
        "set_number": "789",
        "calc_ballistic_coefficient": -8.4e-7,
        "epoch": "07008.43498373",
        "international_designator": "78068B",
        "calc_inclination": 21.5936,
        "perigee": "080.1159",
        "revolution_number": "23145",
        "line_number": 130607,
        "calc_perigee": 80.1159,
        "drag": "67294-3",
        "text": "1 10976U 78068B   07008.43498373 -.00000084  00000-0  67294-3 0  7899\n2 10976  21.5936  78.2374 7162722  80.1159 347.2483  2.22227498231457",
        "calc_drag": 0.00067294,
        "timestamp": "2007-01-08 10:26:22",
        "inclination": "021.5936",
        "eccentricity": "7162722",
        "classification": "U",
        "calc_right_ascension": 78.2374,
        "calc_mean_motion_2": 0,
        "ballistic_coefficient": "-.00000084",
        "filename": "tle2007.txt",
        "calc_eccentricity": 0.7162722,
        "mean_motion": "02.22227498",
        "mean_motion_2": "00000-0"
      }
    },
    {
      "_index": "tle",
      "_type": "_doc",
      "_id": "Au7YtXYBwxzt-Zlw00QE",
      "_score": 9.444279,
      "_source": {
        "right_ascension": "079.9228",
        "anomaly": "347.9458",
        "calc_anomaly": 347.9458,
        "satellite_number": 10976,
        "calc_mean_motion": 2.2222699,
        "ephemeris": "0",
        "set_number": "0787",
        "calc_ballistic_coefficient": -0.00000176,
        "epoch": "07003.48593436",
        "international_designator": "78068B",
        "calc_inclination": 21.5933,
        "perigee": "077.1200",
        "revolution_number": "23134",
        "line_number": 58757,
        "calc_perigee": 77.12,
        "drag": "+67294-3",
        "text": "1 10976U 78068B   07003.48593436 -.00000176  00000-0  67294-3 0  7875\n2 10976  21.5933  79.9228 7161787  77.1200 347.9458  2.22226990231346",
        "calc_drag": 0.00067294,
        "timestamp": "2007-01-03 11:39:44",
        "inclination": "021.5933",
        "eccentricity": "7161787",
        "classification": "U",
        "calc_right_ascension": 79.9228,
        "calc_mean_motion_2": 0,
        "ballistic_coefficient": "-.00000176",
        "filename": "tle2007.txt",
        "calc_eccentricity": 0.7161787,
        "mean_motion": "02.22226990",
        "mean_motion_2": "+00000-0"
      }
    },
    {
      "_index": "tle",
      "_type": "_doc",
      "_id": "SO7ctXYBwxzt-ZlwtGpL",
      "_score": 9.444279,
      "_source": {
        "right_ascension": "077.1351",
        "anomaly": "346.7309",
        "calc_anomaly": 346.7309,
        "satellite_number": 10976,
        "calc_mean_motion": 2.22227908,
        "ephemeris": "0",
        "set_number": "792",
        "calc_ballistic_coefficient": -8.3e-7,
        "epoch": "07011.58428392",
        "international_designator": "78068B",
        "calc_inclination": 21.5972,
        "perigee": "082.0722",
        "revolution_number": "23152",
        "line_number": 236591,
        "calc_perigee": 82.0722,
        "drag": "67294-3",
        "text": "1 10976U 78068B   07011.58428392 -.00000083  00000-0  67294-3 0  7926\n2 10976  21.5972  77.1351 7163344  82.0722 346.7309  2.22227908231523",
        "calc_drag": 0.00067294,
        "timestamp": "2007-01-11 14:01:22",
        "inclination": "021.5972",
        "eccentricity": "7163344",
        "classification": "U",
        "calc_right_ascension": 77.1351,
        "calc_mean_motion_2": 0,
        "ballistic_coefficient": "-.00000083",
        "filename": "tle2007.txt",
        "calc_eccentricity": 0.7163344,
        "mean_motion": "02.22227908",
        "mean_motion_2": "00000-0"
      }
    },
    {
      "_index": "tle",
      "_type": "_doc",
      "_id": "TO7htXYBwxzt-Zlwhcma",
      "_score": 9.444279,
      "_source": {
        "right_ascension": "205.5883",
        "anomaly": "065.5145",
        "calc_anomaly": 65.5145,
        "satellite_number": 10976,
        "calc_mean_motion": 2.2222492,
        "ephemeris": "0",
        "set_number": "0560",
        "calc_ballistic_coefficient": 0.00000147,
        "epoch": "06009.04474378",
        "international_designator": "78068B",
        "calc_inclination": 21.2072,
        "perigee": "214.3878",
        "revolution_number": "22335",
        "line_number": 197439,
        "calc_perigee": 214.3878,
        "drag": "+19086-2",
        "text": "1 10976U 78068B   06009.04474378 +.00000147  00000-0  19086-2 0  5606\n2 10976  21.2072 205.5883 7180907 214.3878  65.5145  2.22224920223351",
        "calc_drag": 0.0019086,
        "timestamp": "2006-01-09 01:04:25",
        "inclination": "021.2072",
        "eccentricity": "7180907",
        "classification": "U",
        "calc_right_ascension": 205.5883,
        "calc_mean_motion_2": 0,
        "ballistic_coefficient": "+.00000147",
        "filename": "tle2006.txt",
        "calc_eccentricity": 0.7180907,
        "mean_motion": "02.22224920",
        "mean_motion_2": "+00000-0"
      }
    }
  ]
}